start=new Date('2022-05-08T00:00:00.000Z').valueOf();
sats=[{"EPOCH":"2022-05-07T13:03:34.863264","TIME_SYSTEM":"UTC","PERIOD":"95.592","ECCENTRICITY":"0.00012990","MEAN_ANOMALY":"288.2670","COUNTRY_CODE":"US","MEAN_MOTION_DOT":"-0.00000185","OBJECT_ID":"2020-070AD","FILE":"3433971","CENTER_NAME":"EARTH","SEMIMAJOR_AXIS":"6925.344","TLE_LINE1":"1 46559U 20070AD  22127.54415351 -.00000185  00000-0  64980-5 0  9997","BSTAR":"0.00000649800000","EPHEMERIS_TYPE":"0","OBJECT_TYPE":"PAYLOAD","ARG_OF_PERICENTER":"71.8460","RCS_SIZE":"LARGE","REV_AT_EPOCH":"8858","PERIAPSIS":"546.310","APOAPSIS":"548.109","LAUNCH_DATE":"2020-10-06","MEAN_MOTION":"15.06401437","ELEMENT_SET_NO":"999","NORAD_CAT_ID":"46559","GP_ID":"202924491","CLASSIFICATION_TYPE":"U","REF_FRAME":"TEME","RA_OF_ASC_NODE":"321.0946","INCLINATION":"53.0558","SITE":"AFETR","MEAN_MOTION_DDOT":"0.0000000000000","MEAN_ELEMENT_THEORY":"SGP4","TLE_LINE2":"2 46559  53.0558 321.0946 0001299  71.8460 288.2670 15.06401437 88582","OBJECT_NAME":"STARLINK-1681","DECAY_DATE":null},{"PERIAPSIS":"546.172","APOAPSIS":"548.233","MEAN_MOTION":"15.06403659","LAUNCH_DATE":"2020-10-06","NORAD_CAT_ID":"46560","ELEMENT_SET_NO":"999","GP_ID":"202939483","REF_FRAME":"TEME","CLASSIFICATION_TYPE":"U","RA_OF_ASC_NODE":"334.7773","INCLINATION":"53.0545","SITE":"AFETR","TLE_LINE2":"2 46560  53.0545 334.7773 0001488  69.1611 290.9537 15.06403659 88431","MEAN_ELEMENT_THEORY":"SGP4","MEAN_MOTION_DDOT":"0.0000000000000","DECAY_DATE":null,"OBJECT_NAME":"STARLINK-1706","TIME_SYSTEM":"UTC","EPOCH":"2022-05-07T20:03:32.986944","PERIOD":"95.592","COUNTRY_CODE":"US","MEAN_ANOMALY":"290.9537","ECCENTRICITY":"0.00014880","MEAN_MOTION_DOT":"0.00000392","CENTER_NAME":"EARTH","OBJECT_ID":"2020-070AE","FILE":"3434445","TLE_LINE1":"1 46560U 20070AE  22127.83579846  .00000392  00000-0  45227-4 0  9992","SEMIMAJOR_AXIS":"6925.337","EPHEMERIS_TYPE":"0","BSTAR":"0.00004522700000","OBJECT_TYPE":"PAYLOAD","ARG_OF_PERICENTER":"69.1611","REV_AT_EPOCH":"8843","RCS_SIZE":"LARGE"},{"SITE":"AFETR","DECAY_DATE":null,"OBJECT_NAME":"STARLINK-1709","TLE_LINE2":"2 46561  53.0540 337.1138 0001516  69.5974 290.5178 15.06398157 88340","MEAN_ELEMENT_THEORY":"SGP4","MEAN_MOTION_DDOT":"0.0000000000000","INCLINATION":"53.0540","RA_OF_ASC_NODE":"337.1138","NORAD_CAT_ID":"46561","ELEMENT_SET_NO":"999","CLASSIFICATION_TYPE":"U","REF_FRAME":"TEME","GP_ID":"202925492","PERIAPSIS":"546.169","MEAN_MOTION":"15.06398157","LAUNCH_DATE":"2020-10-06","APOAPSIS":"548.269","ARG_OF_PERICENTER":"69.5974","OBJECT_TYPE":"PAYLOAD","REV_AT_EPOCH":"8834","RCS_SIZE":"LARGE","EPHEMERIS_TYPE":"0","BSTAR":"0.00002138300000","TLE_LINE1":"1 46561U 20070AF  22127.31977166  .00000037  00000-0  21383-4 0  9996","SEMIMAJOR_AXIS":"6925.354","MEAN_MOTION_DOT":"0.00000037","COUNTRY_CODE":"US","MEAN_ANOMALY":"290.5178","ECCENTRICITY":"0.00015160","CENTER_NAME":"EARTH","OBJECT_ID":"2020-070AF","FILE":"3433971","EPOCH":"2022-05-07T07:40:28.271424","TIME_SYSTEM":"UTC","PERIOD":"95.592"},{"NORAD_CAT_ID":"46562","ELEMENT_SET_NO":"999","CLASSIFICATION_TYPE":"U","REF_FRAME":"TEME","GP_ID":"202926240","PERIAPSIS":"546.072","MEAN_MOTION":"15.06398393","LAUNCH_DATE":"2020-10-06","APOAPSIS":"548.365","SITE":"AFETR","OBJECT_NAME":"STARLINK-1714","DECAY_DATE":null,"TLE_LINE2":"2 46562  53.0549 333.5911 0001655  97.0726 263.0451 15.06398393 88367","MEAN_MOTION_DDOT":"0.0000000000000","MEAN_ELEMENT_THEORY":"SGP4","INCLINATION":"53.0549","RA_OF_ASC_NODE":"333.5911","MEAN_MOTION_DOT":"0.00000009","COUNTRY_CODE":"US","MEAN_ANOMALY":"263.0451","ECCENTRICITY":"0.00016550","CENTER_NAME":"EARTH","OBJECT_ID":"2020-070AG","FILE":"3433971","TIME_SYSTEM":"UTC","EPOCH":"2022-05-06T23:46:05.448576","PERIOD":"95.592","ARG_OF_PERICENTER":"97.0726","OBJECT_TYPE":"PAYLOAD","REV_AT_EPOCH":"8836","RCS_SIZE":"LARGE","EPHEMERIS_TYPE":"0","BSTAR":"0.00001953100000","TLE_LINE1":"1 46562U 20070AG  22126.99034084  .00000009  00000-0  19531-4 0  9994","SEMIMAJOR_AXIS":"6925.353"},{"INCLINATION":"53.0573","RA_OF_ASC_NODE":"329.7957","SITE":"AFETR","OBJECT_NAME":"STARLINK-1730","DECAY_DATE":null,"MEAN_MOTION_DDOT":"0.0000000000000","MEAN_ELEMENT_THEORY":"SGP4","TLE_LINE2":"2 46563  53.0573 329.7957 0001593  71.4232 288.6930 15.06400075 88503","PERIAPSIS":"546.110","LAUNCH_DATE":"2020-10-06","MEAN_MOTION":"15.06400075","APOAPSIS":"548.317","ELEMENT_SET_NO":"999","NORAD_CAT_ID":"46563","REF_FRAME":"TEME","CLASSIFICATION_TYPE":"U","GP_ID":"202940016","BSTAR":"0.00015224000000","EPHEMERIS_TYPE":"0","SEMIMAJOR_AXIS":"6925.348","TLE_LINE1":"1 46563U 20070AH  22127.83441696  .00001987  00000-0  15224-3 0  9990","ARG_OF_PERICENTER":"71.4232","OBJECT_TYPE":"PAYLOAD","RCS_SIZE":"LARGE","REV_AT_EPOCH":"8850","EPOCH":"2022-05-07T20:01:33.625344","TIME_SYSTEM":"UTC","PERIOD":"95.592","MEAN_MOTION_DOT":"0.00001987","MEAN_ANOMALY":"288.6930","ECCENTRICITY":"0.00015930","COUNTRY_CODE":"US","FILE":"3434433","OBJECT_ID":"2020-070AH","CENTER_NAME":"EARTH"},{"PERIAPSIS":"546.250","APOAPSIS":"548.250","LAUNCH_DATE":"2020-10-06","MEAN_MOTION":"15.06388122","ELEMENT_SET_NO":"999","NORAD_CAT_ID":"46564","GP_ID":"202925241","CLASSIFICATION_TYPE":"U","REF_FRAME":"TEME","RA_OF_ASC_NODE":"331.0661","INCLINATION":"53.0545","SITE":"AFETR","MEAN_MOTION_DDOT":"0.0000000000000","MEAN_ELEMENT_THEORY":"SGP4","TLE_LINE2":"2 46564  53.0545 331.0661 0001444  76.8730 283.2420 15.06388122 88455","OBJECT_NAME":"STARLINK-1733","DECAY_DATE":null,"TIME_SYSTEM":"UTC","EPOCH":"2022-05-07T13:12:52.938144","PERIOD":"95.593","MEAN_ANOMALY":"283.2420","ECCENTRICITY":"0.00014440","COUNTRY_CODE":"US","MEAN_MOTION_DOT":"-0.00000405","OBJECT_ID":"2020-070AJ","FILE":"3433971","CENTER_NAME":"EARTH","SEMIMAJOR_AXIS":"6925.385","TLE_LINE1":"1 46564U 20070AJ  22127.55061271 -.00000405  00000-0 -83008-5 0  9990","BSTAR":"-0.00000830080000","EPHEMERIS_TYPE":"0","OBJECT_TYPE":"PAYLOAD","ARG_OF_PERICENTER":"76.8730","RCS_SIZE":"LARGE","REV_AT_EPOCH":"8845"},{"ARG_OF_PERICENTER":"65.1319","OBJECT_TYPE":"PAYLOAD","RCS_SIZE":"LARGE","REV_AT_EPOCH":"8844","BSTAR":"-0.00004736200000","EPHEMERIS_TYPE":"0","SEMIMAJOR_AXIS":"6925.373","TLE_LINE1":"1 46565U 20070AK  22127.52849003 -.00000987  00000-0 -47362-4 0  9992","MEAN_MOTION_DOT":"-0.00000987","MEAN_ANOMALY":"294.9824","ECCENTRICITY":"0.00014850","COUNTRY_CODE":"US","OBJECT_ID":"2020-070AK","FILE":"3433971","CENTER_NAME":"EARTH","TIME_SYSTEM":"UTC","EPOCH":"2022-05-07T12:41:01.538592","PERIOD":"95.593","SITE":"AFETR","DECAY_DATE":null,"OBJECT_NAME":"STARLINK-1735","MEAN_ELEMENT_THEORY":"SGP4","MEAN_MOTION_DDOT":"0.0000000000000","TLE_LINE2":"2 46565  53.0565 331.1748 0001485  65.1319 294.9824 15.06392072 88449","INCLINATION":"53.0565","RA_OF_ASC_NODE":"331.1748","ELEMENT_SET_NO":"999","NORAD_CAT_ID":"46565","CLASSIFICATION_TYPE":"U","REF_FRAME":"TEME","GP_ID":"202925992","PERIAPSIS":"546.209","LAUNCH_DATE":"2020-10-06","MEAN_MOTION":"15.06392072","APOAPSIS":"548.266"},{"SEMIMAJOR_AXIS":"6925.356","TLE_LINE1":"1 46566U 20070AL  22127.84547884 -.00001164  00000-0 -59238-4 0  9993","BSTAR":"-0.00005923800000","EPHEMERIS_TYPE":"0","OBJECT_TYPE":"PAYLOAD","ARG_OF_PERICENTER":"64.9855","RCS_SIZE":"LARGE","REV_AT_EPOCH":"8817","TIME_SYSTEM":"UTC","EPOCH":"2022-05-07T20:17:29.371776","PERIOD":"95.592","ECCENTRICITY":"0.00014770","MEAN_ANOMALY":"295.1287","COUNTRY_CODE":"US","MEAN_MOTION_DOT":"-0.00001164","FILE":"3434447","OBJECT_ID":"2020-070AL","CENTER_NAME":"EARTH","RA_OF_ASC_NODE":"329.7305","INCLINATION":"53.0546","SITE":"AFETR","MEAN_MOTION_DDOT":"0.0000000000000","MEAN_ELEMENT_THEORY":"SGP4","TLE_LINE2":"2 46566  53.0546 329.7305 0001477  64.9855 295.1287 15.06397579 88177","DECAY_DATE":null,"OBJECT_NAME":"STARLINK-1740","PERIAPSIS":"546.198","APOAPSIS":"548.244","LAUNCH_DATE":"2020-10-06","MEAN_MOTION":"15.06397579","ELEMENT_SET_NO":"999","NORAD_CAT_ID":"46566","GP_ID":"202939602","CLASSIFICATION_TYPE":"U","REF_FRAME":"TEME"},{"RA_OF_ASC_NODE":"329.9082","INCLINATION":"53.0538","TLE_LINE2":"2 46567  53.0538 329.9082 0001601  78.2818 281.8351 15.06396606 88498","MEAN_ELEMENT_THEORY":"SGP4","MEAN_MOTION_DDOT":"0.0000000000000","OBJECT_NAME":"STARLINK-1741","DECAY_DATE":null,"SITE":"AFETR","APOAPSIS":"548.333","MEAN_MOTION":"15.06396606","LAUNCH_DATE":"2020-10-06","PERIAPSIS":"546.115","GP_ID":"202940174","CLASSIFICATION_TYPE":"U","REF_FRAME":"TEME","NORAD_CAT_ID":"46567","ELEMENT_SET_NO":"999","TLE_LINE1":"1 46567U 20070AM  22127.80861441 -.00001178  00000-0 -60231-4 0  9998","SEMIMAJOR_AXIS":"6925.359","EPHEMERIS_TYPE":"0","BSTAR":"-0.00006023100000","REV_AT_EPOCH":"8849","RCS_SIZE":"LARGE","OBJECT_TYPE":"PAYLOAD","ARG_OF_PERICENTER":"78.2818","PERIOD":"95.592","EPOCH":"2022-05-07T19:24:24.285024","TIME_SYSTEM":"UTC","CENTER_NAME":"EARTH","FILE":"3434453","OBJECT_ID":"2020-070AM","COUNTRY_CODE":"US","ECCENTRICITY":"0.00016010","MEAN_ANOMALY":"281.8351","MEAN_MOTION_DOT":"-0.00001178"},{"SITE":"AFETR","MEAN_MOTION_DDOT":"0.0000000000000","MEAN_ELEMENT_THEORY":"SGP4","TLE_LINE2":"2 46569  53.0556 332.2175 0001635  66.8259 293.2902 15.06394358 88412","OBJECT_NAME":"STARLINK-1747","DECAY_DATE":null,"RA_OF_ASC_NODE":"332.2175","INCLINATION":"53.0556","ELEMENT_SET_NO":"999","NORAD_CAT_ID":"46569","GP_ID":"202924742","CLASSIFICATION_TYPE":"U","REF_FRAME":"TEME","PERIAPSIS":"546.099","APOAPSIS":"548.363","LAUNCH_DATE":"2020-10-06","MEAN_MOTION":"15.06394358","OBJECT_TYPE":"PAYLOAD","ARG_OF_PERICENTER":"66.8259","RCS_SIZE":"LARGE","REV_AT_EPOCH":"8841","SEMIMAJOR_AXIS":"6925.366","TLE_LINE1":"1 46569U 20070AP  22127.29259249 -.00000417  00000-0 -91224-5 0  9992","BSTAR":"-0.00000912240000","EPHEMERIS_TYPE":"0","ECCENTRICITY":"0.00016350","MEAN_ANOMALY":"293.2902","COUNTRY_CODE":"US","MEAN_MOTION_DOT":"-0.00000417","FILE":"3433971","OBJECT_ID":"2020-070AP","CENTER_NAME":"EARTH","EPOCH":"2022-05-07T07:01:19.991136","TIME_SYSTEM":"UTC","PERIOD":"95.592"}];
